OBJECT_NAME,OBJECT_ID,EPOCH,MEAN_MOTION,ECCENTRICITY,INCLINATION,RA_OF_ASC_NODE,ARG_OF_PERICENTER,MEAN_ANOMALY,EPHEMERIS_TYPE,CLASSIFICATION_TYPE,NORAD_CAT_ID,ELEMENT_SET_NO,REV_AT_EPOCH,BSTAR,MEAN_MOTION_DOT,MEAN_MOTION_DDOT
GPS BIIR-5  (PRN 22),2000-040A,2026-07-16T16:50:42.452736,2.00557873,.01204797,54.8483,213.9898,302.7594,51.6165,0,U,26407,999,19053,0,.4E-6,0
GPS BIIR-8  (PRN 16),2003-005A,2026-07-17T00:50:37.506912,2.00558941,.0148317,54.8787,213.7828,53.1752,318.0441,0,U,27663,999,17191,0,.39E-6,0
GPS BIIR-11 (PRN 19),2004-009A,2026-07-15T07:44:57.281280,2.00553679,.011719,54.8064,274.5493,174.3464,193.0921,0,U,28190,999,16351,0,-.17E-6,0
GPS BIIR-13 (PRN 02),2004-045A,2026-07-15T15:38:31.818624,2.00557062,.0170187,55.1179,323.7499,317.0701,352.9112,0,U,28474,999,15899,0,-.92E-6,0
GPS BIIRM-1 (PRN 17),2005-038A,2026-07-17T06:37:54.090336,2.00563576,.01282473,54.8539,271.9618,296.4391,71.1880,0,U,28874,999,15244,0,-.33E-6,0
INMARSAT 4-F2 (SOUTHPAN/PRN 122),2005-044A,2026-07-17T07:06:43.916832,1.00270162,.00029124,5.1332,43.6754,59.1292,82.4863,0,U,28899,999,7582,0,-.272E-5,0
GPS BIIRM-2 (PRN 31),2006-042A,2026-07-16T14:33:28.836000,2.00568138,.0107228,54.7129,150.1709,55.1966,87.8158,0,U,29486,999,14498,0,.21E-6,0
GPS BIIRM-3 (PRN 12),2006-052A,2026-07-16T20:02:36.926304,2.00559745,.00847474,54.9321,212.8309,91.0064,269.9966,0,U,29601,999,14400,0,.4E-6,0
GPS BIIRM-4 (PRN 15),2007-047A,2026-07-16T15:24:56.221632,2.00553854,.01678373,54.1169,78.8515,88.0227,273.9620,0,U,32260,999,13740,0,-.36E-6,0
COSMOS 2433 (720),2007-052A,2026-07-16T22:45:18.332640,2.13104076,.00035844,65.5585,314.9323,203.6776,156.3207,0,U,32275,999,14569,0,-.66E-6,0
COSMOS 2432 (719),2007-052B,2026-07-16T13:05:31.536096,2.13103049,.0007406,65.5746,315.0744,321.6777,33.2128,0,U,32276,999,14570,0,-.65E-6,0
GPS BIIRM-5 (PRN 29),2007-062A,2026-07-16T11:06:11.664864,2.00561660,.00360651,55.0085,272.9745,167.5913,190.6856,0,U,32384,999,13609,0,-.26E-6,0
COSMOS 2434 (721),2007-065A,2026-07-15T09:30:25.207776,2.13101170,.00012762,64.3200,190.9641,327.5918,171.4568,0,U,32393,999,14437,0,.54E-6,0
COSMOS 2436 (723),2007-065C,2026-07-15T04:32:36.170592,2.13099957,.00173142,64.3286,191.0436,353.5207,119.0574,0,U,32395,999,14432,0,.56E-6,0
GPS BIIRM-6 (PRN 07),2008-012A,2026-07-17T01:11:06.693792,2.00573180,.02116936,54.5003,148.7318,248.1684,109.5345,0,U,32711,999,13435,0,.23E-6,0
GPS BIIRM-8 (PRN 05),2009-043A,2026-07-16T13:18:36.856800,2.00552658,.0053711,56.2287,26.2994,84.4473,285.7660,0,U,35752,999,12395,0,-.81E-6,0
COSMOS 2456 (730),2009-070A,2026-07-16T04:16:30.382752,2.13103565,.0003619,65.0282,69.9837,341.3386,195.9451,0,U,36111,999,12904,0,-.16E-6,0
COSMOS 2457 (733),2009-070B,2026-07-13T04:41:57.056928,2.13101172,.0004075,65.0120,69.9289,121.6619,54.8410,0,U,36112,999,12898,0,-.12E-6,0
COSMOS 2460 (732),2010-007C,2026-07-17T04:30:51.853824,2.13101529,.00018623,65.4015,313.4518,145.0580,216.1345,0,U,36402,999,12737,0,-.66E-6,0
GPS BIIF-1  (PRN 25),2010-022A,2026-07-15T08:58:33.645792,2.00563746,.01267238,54.2685,207.4265,66.1541,291.5416,0,U,36585,999,11815,0,.49E-6,0
BEIDOU-2 IGSO-1 (C06),2010-036A,2026-07-16T21:03:37.360800,1.00263239,.00587381,54.3069,162.6917,225.2841,329.6485,0,U,36828,999,5839,0,-.119E-5,0
BEIDOU-2 G4 (C04),2010-057A,2026-07-16T20:55:31.448928,1.00272568,.00056145,3.7189,68.7584,185.7562,153.9846,0,U,37210,999,5758,0,-.125E-5,0
BEIDOU-2 IGSO-2 (C07),2010-068A,2026-07-16T21:22:22.625760,1.00272868,.00568407,47.4927,271.4611,213.7793,238.3724,0,U,37256,999,5709,0,-.197E-5,0
BEIDOU-2 IGSO-3 (C08),2011-013A,2026-07-16T21:03:18.283680,1.00260325,.00356242,62.4493,39.8703,183.4987,133.5485,0,U,37384,999,5595,0,-.17E-5,0
GSAT-8 (GAGAN/PRN 127),2011-022A,2026-07-17T04:39:38.704608,1.00280720,.00028214,2.2069,81.4553,148.8430,189.7219,0,U,37605,999,5351,0,.72E-6,0
BEIDOU-2 IGSO-4 (C09),2011-038A,2026-07-12T21:52:21.720000,1.00279714,.01603423,54.6038,165.4445,231.4539,316.2369,0,U,37763,999,5490,0,-.17E-6,0
GSAT0101 (GALILEO-PFM),2011-060A,2026-07-15T14:11:05.797248,1.70475567,.0002223,56.9841,340.9916,61.9424,298.0655,0,U,37846,999,9160,0,-.101E-5,0
GSAT0102 (GALILEO-FM2),2011-060B,2026-07-15T12:19:38.977248,1.70475846,.00021082,56.9849,340.9943,7.4765,350.6813,0,U,37847,999,9160,0,-.101E-5,0
COSMOS 2476 (744),2011-064A,2026-07-17T05:50:31.755840,2.13103661,.00221326,65.2868,71.8572,235.8678,306.9990,0,U,37867,999,11440,0,-.23E-6,0
COSMOS 2477 (745),2011-064B,2026-07-15T03:41:41.820000,2.13102912,.0019117,65.2921,72.0075,236.8947,323.2552,0,U,37868,999,11435,0,-.1E-6,0
COSMOS 2475 (743),2011-064C,2026-07-16T14:19:55.576128,2.13101724,.0024799,65.2997,71.9806,251.1530,291.1802,0,U,37869,999,11439,0,-.17E-6,0
